DELTA 2 R/B(1)          
1 20453U 90008B   25351.07905596  .00036944  00000+0  58417-3 0  9991
2 20453  35.6075 352.5050 0111285 218.0651 141.2178 15.45568967913309
COSMOS 2058             
1 20465U 90010A   25351.32887070  .00004423  00000+0  26659-3 0  9991
2 20465  82.4680 128.5161 0008643 254.0594 105.9684 15.10515986929803
SL-14 R/B               
1 20466U 90010B   25351.06231683  .00000436  00000+0  50044-4 0  9992
2 20466  82.5019 344.9871 0019023 208.1642 151.8546 14.83475433916232
SL-14 R/B               
1 20511U 90018B   25351.33825860  .00000462  00000+0  55184-4 0  9996
2 20511  82.5212 300.0663 0016632   8.7253 351.4247 14.82051573910385
HST                     
1 20580U 90037B   25351.10253682  .00005953  00000+0  20311-3 0  9998
2 20580  28.4677 242.7933 0001895 295.0426  64.9973 15.28113078760661
SL-16 R/B               
1 20625U 90046B   25351.34091389 -.00000256  00000+0 -10738-3 0  9993
2 20625  70.9991 110.8588 0011916  64.9547 295.2811 14.15000156836745
COSMOS 2084             
1 20663U 90055A   25351.15251369  .00002233  00000+0  16908-3 0  9990
2 20663  62.7903 256.9569 0031018 175.2160 184.9243 15.05046350923894
SL-6 R/B(2)             
1 20666U 90055D   25351.22468983  .00001507  00000+0  12563-3 0  9999
2 20666  62.7817 174.1763 0013188 312.1939  47.8040 15.03094744925793
SL-8 R/B                
1 20775U 90078B   25351.30979265  .00016673  00000+0  51564-3 0  9998
2 20775  82.9044 325.2189 0371201 290.5209  65.6541 14.86124940797055
SL-8 R/B                
1 21088U 91006B   25351.19201162  .00000090  00000+0  75437-4 0  9991
2 21088  82.9423 231.4013 0021179 266.6093 205.8299 13.77490711752712
OKEAN-3                 
1 21397U 91039A   25351.27241633  .00003026  00000+0  21590-3 0  9998
2 21397  82.5180  56.6608 0013297 249.2352 110.7450 15.04151390852640
COSMOS 2151             
1 21422U 91042A   25351.22702803  .00001775  00000+0  14159-3 0  9999
2 21422  82.4962 163.1789 0012198 344.3776  15.7069 14.99702807850833
