CCSDS_OMM_VERS = 2.0
CREATION_DATE  = 
ORIGINATOR     = 

OBJECT_NAME    = DELTA 2 R/B(1)
OBJECT_ID      = 1990-008B
CENTER_NAME    = EARTH
REF_FRAME      = TEME
TIME_SYSTEM    = UTC
MEAN_ELEMENT_THEORY = SGP/SGP4

EPOCH          = 2025-12-17T01:53:50.434944
MEAN_MOTION    = 15.45568967
ECCENTRICITY   = .0111285
INCLINATION    = 35.6075
RA_OF_ASC_NODE = 352.5050
ARG_OF_PERICENTER = 218.0651
MEAN_ANOMALY   = 141.2178

EPHEMERIS_TYPE = 0
CLASSIFICATION_TYPE = U
NORAD_CAT_ID   = 20453
ELEMENT_SET_NO = 999
REV_AT_EPOCH   = 91330
BSTAR          = .58417295E-3
MEAN_MOTION_DOT = .36944E-3
MEAN_MOTION_DDOT = 0

CCSDS_OMM_VERS = 2.0
CREATION_DATE  = 
ORIGINATOR     = 

OBJECT_NAME    = COSMOS 2058
OBJECT_ID      = 1990-010A
CENTER_NAME    = EARTH
REF_FRAME      = TEME
TIME_SYSTEM    = UTC
MEAN_ELEMENT_THEORY = SGP/SGP4

EPOCH          = 2025-12-17T07:53:34.428480
MEAN_MOTION    = 15.10515986
ECCENTRICITY   = .00086431
INCLINATION    = 82.4680
RA_OF_ASC_NODE = 128.5161
ARG_OF_PERICENTER = 254.0594
MEAN_ANOMALY   = 105.9684

EPHEMERIS_TYPE = 0
CLASSIFICATION_TYPE = U
NORAD_CAT_ID   = 20465
ELEMENT_SET_NO = 999
REV_AT_EPOCH   = 92980
BSTAR          = .26659364E-3
MEAN_MOTION_DOT = .4423E-4
MEAN_MOTION_DDOT = 0

CCSDS_OMM_VERS = 2.0
CREATION_DATE  = 
ORIGINATOR     = 

OBJECT_NAME    = SL-14 R/B
OBJECT_ID      = 1990-010B
CENTER_NAME    = EARTH
REF_FRAME      = TEME
TIME_SYSTEM    = UTC
MEAN_ELEMENT_THEORY = SGP/SGP4

EPOCH          = 2025-12-17T01:29:44.174112
MEAN_MOTION    = 14.83475433
ECCENTRICITY   = .00190232
INCLINATION    = 82.5019
RA_OF_ASC_NODE = 344.9871
ARG_OF_PERICENTER = 208.1642
MEAN_ANOMALY   = 151.8546

EPHEMERIS_TYPE = 0
CLASSIFICATION_TYPE = U
NORAD_CAT_ID   = 20466
ELEMENT_SET_NO = 999
REV_AT_EPOCH   = 91623
BSTAR          = .50044064E-4
MEAN_MOTION_DOT = .436E-5
MEAN_MOTION_DDOT = 0

CCSDS_OMM_VERS = 2.0
CREATION_DATE  = 
ORIGINATOR     = 

OBJECT_NAME    = SL-14 R/B
OBJECT_ID      = 1990-018B
CENTER_NAME    = EARTH
REF_FRAME      = TEME
TIME_SYSTEM    = UTC
MEAN_ELEMENT_THEORY = SGP/SGP4

EPOCH          = 2025-12-17T08:07:05.543040
MEAN_MOTION    = 14.82051573
ECCENTRICITY   = .00166324
INCLINATION    = 82.5212
RA_OF_ASC_NODE = 300.0663
ARG_OF_PERICENTER = 8.7253
MEAN_ANOMALY   = 351.4247

EPHEMERIS_TYPE = 0
CLASSIFICATION_TYPE = U
NORAD_CAT_ID   = 20511
ELEMENT_SET_NO = 999
REV_AT_EPOCH   = 91038
BSTAR          = .55184136E-4
MEAN_MOTION_DOT = .462E-5
MEAN_MOTION_DDOT = 0

CCSDS_OMM_VERS = 2.0
CREATION_DATE  = 
ORIGINATOR     = 

OBJECT_NAME    = HST
OBJECT_ID      = 1990-037B
CENTER_NAME    = EARTH
REF_FRAME      = TEME
TIME_SYSTEM    = UTC
MEAN_ELEMENT_THEORY = SGP/SGP4

EPOCH          = 2025-12-17T02:27:39.181248
MEAN_MOTION    = 15.28113078
ECCENTRICITY   = .00018953
INCLINATION    = 28.4677
RA_OF_ASC_NODE = 242.7933
ARG_OF_PERICENTER = 295.0426
MEAN_ANOMALY   = 64.9973

EPHEMERIS_TYPE = 0
CLASSIFICATION_TYPE = U
NORAD_CAT_ID   = 20580
ELEMENT_SET_NO = 999
REV_AT_EPOCH   = 76066
BSTAR          = .20311482E-3
MEAN_MOTION_DOT = .5953E-4
MEAN_MOTION_DDOT = 0

CCSDS_OMM_VERS = 2.0
CREATION_DATE  = 
ORIGINATOR     = 

OBJECT_NAME    = SL-16 R/B
OBJECT_ID      = 1990-046B
CENTER_NAME    = EARTH
REF_FRAME      = TEME
TIME_SYSTEM    = UTC
MEAN_ELEMENT_THEORY = SGP/SGP4

EPOCH          = 2025-12-17T08:10:54.960096
MEAN_MOTION    = 14.15000156
ECCENTRICITY   = .00119168
INCLINATION    = 70.9991
RA_OF_ASC_NODE = 110.8588
ARG_OF_PERICENTER = 64.9547
MEAN_ANOMALY   = 295.2811

EPHEMERIS_TYPE = 0
CLASSIFICATION_TYPE = U
NORAD_CAT_ID   = 20625
ELEMENT_SET_NO = 999
REV_AT_EPOCH   = 83674
BSTAR          = -.10738232E-3
MEAN_MOTION_DOT = -.256E-5
MEAN_MOTION_DDOT = 0

CCSDS_OMM_VERS = 2.0
CREATION_DATE  = 
ORIGINATOR     = 

OBJECT_NAME    = COSMOS 2084
OBJECT_ID      = 1990-055A
CENTER_NAME    = EARTH
REF_FRAME      = TEME
TIME_SYSTEM    = UTC
MEAN_ELEMENT_THEORY = SGP/SGP4

EPOCH          = 2025-12-17T03:39:37.182816
MEAN_MOTION    = 15.05046350
ECCENTRICITY   = .00310189
INCLINATION    = 62.7903
RA_OF_ASC_NODE = 256.9569
ARG_OF_PERICENTER = 175.2160
MEAN_ANOMALY   = 184.9243

EPHEMERIS_TYPE = 0
CLASSIFICATION_TYPE = U
NORAD_CAT_ID   = 20663
ELEMENT_SET_NO = 999
REV_AT_EPOCH   = 92389
BSTAR          = .1690847E-3
MEAN_MOTION_DOT = .2233E-4
MEAN_MOTION_DDOT = 0

CCSDS_OMM_VERS = 2.0
CREATION_DATE  = 
ORIGINATOR     = 

OBJECT_NAME    = SL-6 R/B(2)
OBJECT_ID      = 1990-055D
CENTER_NAME    = EARTH
REF_FRAME      = TEME
TIME_SYSTEM    = UTC
MEAN_ELEMENT_THEORY = SGP/SGP4

EPOCH          = 2025-12-17T05:23:33.201312
MEAN_MOTION    = 15.03094744
ECCENTRICITY   = .00131888
INCLINATION    = 62.7817
RA_OF_ASC_NODE = 174.1763
ARG_OF_PERICENTER = 312.1939
MEAN_ANOMALY   = 47.8040

EPHEMERIS_TYPE = 0
CLASSIFICATION_TYPE = U
NORAD_CAT_ID   = 20666
ELEMENT_SET_NO = 999
REV_AT_EPOCH   = 92579
BSTAR          = .12563162E-3
MEAN_MOTION_DOT = .1507E-4
MEAN_MOTION_DDOT = 0

CCSDS_OMM_VERS = 2.0
CREATION_DATE  = 
ORIGINATOR     = 

OBJECT_NAME    = SL-8 R/B
OBJECT_ID      = 1990-078B
CENTER_NAME    = EARTH
REF_FRAME      = TEME
TIME_SYSTEM    = UTC
MEAN_ELEMENT_THEORY = SGP/SGP4

EPOCH          = 2025-12-17T07:26:06.084960
MEAN_MOTION    = 14.86124940
ECCENTRICITY   = .03712013
INCLINATION    = 82.9044
RA_OF_ASC_NODE = 325.2189
ARG_OF_PERICENTER = 290.5209
MEAN_ANOMALY   = 65.6541

EPHEMERIS_TYPE = 0
CLASSIFICATION_TYPE = U
NORAD_CAT_ID   = 20775
ELEMENT_SET_NO = 999
REV_AT_EPOCH   = 79705
BSTAR          = .51563543E-3
MEAN_MOTION_DOT = .16673E-3
MEAN_MOTION_DDOT = 0

CCSDS_OMM_VERS = 2.0
CREATION_DATE  = 
ORIGINATOR     = 

OBJECT_NAME    = SL-8 R/B
OBJECT_ID      = 1991-006B
CENTER_NAME    = EARTH
REF_FRAME      = TEME
TIME_SYSTEM    = UTC
MEAN_ELEMENT_THEORY = SGP/SGP4

EPOCH          = 2025-12-17T04:36:29.803968
MEAN_MOTION    = 13.77490711
ECCENTRICITY   = .00211791
INCLINATION    = 82.9423
RA_OF_ASC_NODE = 231.4013
ARG_OF_PERICENTER = 266.6093
MEAN_ANOMALY   = 205.8299

EPHEMERIS_TYPE = 0
CLASSIFICATION_TYPE = U
NORAD_CAT_ID   = 21088
ELEMENT_SET_NO = 999
REV_AT_EPOCH   = 75271
BSTAR          = .75436933E-4
MEAN_MOTION_DOT = .9E-6
MEAN_MOTION_DDOT = 0

CCSDS_OMM_VERS = 2.0
CREATION_DATE  = 
ORIGINATOR     = 

OBJECT_NAME    = OKEAN-3
OBJECT_ID      = 1991-039A
CENTER_NAME    = EARTH
REF_FRAME      = TEME
TIME_SYSTEM    = UTC
MEAN_ELEMENT_THEORY = SGP/SGP4

EPOCH          = 2025-12-17T06:32:16.770912
MEAN_MOTION    = 15.04151390
ECCENTRICITY   = .00132972
INCLINATION    = 82.5180
RA_OF_ASC_NODE = 56.6608
ARG_OF_PERICENTER = 249.2352
MEAN_ANOMALY   = 110.7450

EPHEMERIS_TYPE = 0
CLASSIFICATION_TYPE = U
NORAD_CAT_ID   = 21397
ELEMENT_SET_NO = 999
REV_AT_EPOCH   = 85264
BSTAR          = .21590041E-3
MEAN_MOTION_DOT = .3026E-4
MEAN_MOTION_DDOT = 0

CCSDS_OMM_VERS = 2.0
CREATION_DATE  = 
ORIGINATOR     = 

OBJECT_NAME    = COSMOS 2151
OBJECT_ID      = 1991-042A
CENTER_NAME    = EARTH
REF_FRAME      = TEME
TIME_SYSTEM    = UTC
MEAN_ELEMENT_THEORY = SGP/SGP4

EPOCH          = 2025-12-17T05:26:55.221792
MEAN_MOTION    = 14.99702807
ECCENTRICITY   = .00121986
INCLINATION    = 82.4962
RA_OF_ASC_NODE = 163.1789
ARG_OF_PERICENTER = 344.3776
MEAN_ANOMALY   = 15.7069

EPHEMERIS_TYPE = 0
CLASSIFICATION_TYPE = U
NORAD_CAT_ID   = 21422
ELEMENT_SET_NO = 999
REV_AT_EPOCH   = 85083
BSTAR          = .14158918E-3
MEAN_MOTION_DOT = .1775E-4
MEAN_MOTION_DDOT = 0

